{
  "links" : {
    "next" : "https://api.nasa.gov/neo/rest/v1/feed?start_date=2010-07-23&end_date=2010-07-23&detailed=true&api_key=t0TVs3DtDT2H8Oy2Zy8m2eVrNsAVKAexjcZXUckd",
    "prev" : "https://api.nasa.gov/neo/rest/v1/feed?start_date=2010-07-21&end_date=2010-07-21&detailed=true&api_key=t0TVs3DtDT2H8Oy2Zy8m2eVrNsAVKAexjcZXUckd",
    "self" : "https://api.nasa.gov/neo/rest/v1/feed?start_date=2010-07-22&end_date=2010-07-22&detailed=true&api_key=t0TVs3DtDT2H8Oy2Zy8m2eVrNsAVKAexjcZXUckd"
  },
  "element_count" : 8,
  "near_earth_objects" : {
    "2010-07-22" : [ {
      "links" : {
        "self" : "https://api.nasa.gov/neo/rest/v1/neo/3548659?api_key=t0TVs3DtDT2H8Oy2Zy8m2eVrNsAVKAexjcZXUckd"
      },
      "neo_reference_id" : "3548659",
      "name" : "(2010 TN54)",
      "nasa_jpl_url" : "http://ssd.jpl.nasa.gov/sbdb.cgi?sstr=3548659",
      "absolute_magnitude_h" : 19.2,
      "estimated_diameter" : {
        "kilometers" : {
          "estimated_diameter_min" : 0.3841978911,
          "estimated_diameter_max" : 0.8590926012
        },
        "meters" : {
          "estimated_diameter_min" : 384.1978910643,
          "estimated_diameter_max" : 859.0926012318
        },
        "miles" : {
          "estimated_diameter_min" : 0.2387294278,
          "estimated_diameter_max" : 0.5338152287
        },
        "feet" : {
          "estimated_diameter_min" : 1260.4918089193,
          "estimated_diameter_max" : 2818.5453698252
        }
      },
      "is_potentially_hazardous_asteroid" : false,
      "close_approach_data" : [ {
        "close_approach_date" : "2010-07-22",
        "epoch_date_close_approach" : 1279782000000,
        "relative_velocity" : {
          "kilometers_per_second" : "12.5141767497",
          "kilometers_per_hour" : "45051.0362988829",
          "miles_per_hour" : "27992.9619713809"
        },
        "miss_distance" : {
          "astronomical" : "0.4654965888",
          "lunar" : "181.0781707764",
          "kilometers" : "69637304",
          "miles" : "43270612"
        },
        "orbiting_body" : "Earth"
      } ],
      "orbital_data" : {
        "orbit_id" : "84",
        "orbit_determination_date" : "2016-06-12 06:14:23",
        "orbit_uncertainty" : "0",
        "minimum_orbit_intersection" : ".164048",
        "jupiter_tisserand_invariant" : "3.604",
        "epoch_osculation" : "2457600.5",
        "eccentricity" : ".4447798447728726",
        "semi_major_axis" : "2.108649058488159",
        "inclination" : "4.720486633225841",
        "ascending_node_longitude" : "283.3636154734343",
        "orbital_period" : "1118.419901271075",
        "perihelion_distance" : "1.170764457573332",
        "perihelion_argument" : "35.12553570597198",
        "aphelion_distance" : "3.046533659402986",
        "perihelion_time" : "2457633.459613819876",
        "mean_anomaly" : "349.3908710300395",
        "mean_motion" : ".3218826843038674",
        "equinox" : "J2000"
      }
    }, {
      "links" : {
        "self" : "https://api.nasa.gov/neo/rest/v1/neo/2468738?api_key=t0TVs3DtDT2H8Oy2Zy8m2eVrNsAVKAexjcZXUckd"
      },
      "neo_reference_id" : "2468738",
      "name" : "468738 (2010 TN54)",
      "nasa_jpl_url" : "http://ssd.jpl.nasa.gov/sbdb.cgi?sstr=2468738",
      "absolute_magnitude_h" : 19.3,
      "estimated_diameter" : {
        "kilometers" : {
          "estimated_diameter_min" : 0.3669061375,
          "estimated_diameter_max" : 0.8204270649
        },
        "meters" : {
          "estimated_diameter_min" : 366.9061375314,
          "estimated_diameter_max" : 820.4270648822
        },
        "miles" : {
          "estimated_diameter_min" : 0.2279848336,
          "estimated_diameter_max" : 0.5097895857
        },
        "feet" : {
          "estimated_diameter_min" : 1203.7603322587,
          "estimated_diameter_max" : 2691.6899315481
        }
      },
      "is_potentially_hazardous_asteroid" : false,
      "close_approach_data" : [ {
        "close_approach_date" : "2010-07-22",
        "epoch_date_close_approach" : 1279782000000,
        "relative_velocity" : {
          "kilometers_per_second" : "12.514172464",
          "kilometers_per_hour" : "45051.0208704047",
          "miles_per_hour" : "27992.9523847245"
        },
        "miss_distance" : {
          "astronomical" : "0.4654965077",
          "lunar" : "181.0781402588",
          "kilometers" : "69637288",
          "miles" : "43270604"
        },
        "orbiting_body" : "Earth"
      } ],
      "orbital_data" : {
        "orbit_id" : "88",
        "orbit_determination_date" : "2017-04-06 09:19:19",
        "orbit_uncertainty" : "0",
        "minimum_orbit_intersection" : ".163875",
        "jupiter_tisserand_invariant" : "3.604",
        "epoch_osculation" : "2458000.5",
        "eccentricity" : ".4448974534506881",
        "semi_major_axis" : "2.108576506995309",
        "inclination" : "4.720940315932924",
        "ascending_node_longitude" : "283.3570395232144",
        "orbital_period" : "1118.362180190005",
        "perihelion_distance" : "1.170476188627149",
        "perihelion_argument" : "35.11414108586329",
        "aphelion_distance" : "3.046676825363469",
        "perihelion_time" : "2457633.457964573796",
        "mean_anomaly" : "118.1505733062113",
        "mean_motion" : ".3218992973625392",
        "equinox" : "J2000"
      }
    }, {
      "links" : {
        "self" : "https://api.nasa.gov/neo/rest/v1/neo/3740929?api_key=t0TVs3DtDT2H8Oy2Zy8m2eVrNsAVKAexjcZXUckd"
      },
      "neo_reference_id" : "3740929",
      "name" : "(2016 BW14)",
      "nasa_jpl_url" : "http://ssd.jpl.nasa.gov/sbdb.cgi?sstr=3740929",
      "absolute_magnitude_h" : 25.8,
      "estimated_diameter" : {
        "kilometers" : {
          "estimated_diameter_min" : 0.0183888672,
          "estimated_diameter_max" : 0.0411187571
        },
        "meters" : {
          "estimated_diameter_min" : 18.388867207,
          "estimated_diameter_max" : 41.1187571041
        },
        "miles" : {
          "estimated_diameter_min" : 0.0114263088,
          "estimated_diameter_max" : 0.0255500032
        },
        "feet" : {
          "estimated_diameter_min" : 60.3309310875,
          "estimated_diameter_max" : 134.9040630575
        }
      },
      "is_potentially_hazardous_asteroid" : false,
      "close_approach_data" : [ {
        "close_approach_date" : "2010-07-22",
        "epoch_date_close_approach" : 1279782000000,
        "relative_velocity" : {
          "kilometers_per_second" : "9.8607593038",
          "kilometers_per_hour" : "35498.7334937569",
          "miles_per_hour" : "22057.532486718"
        },
        "miss_distance" : {
          "astronomical" : "0.2935264111",
          "lunar" : "114.1817703247",
          "kilometers" : "43910928",
          "miles" : "27284984"
        },
        "orbiting_body" : "Earth"
      } ],
      "orbital_data" : {
        "orbit_id" : "7",
        "orbit_determination_date" : "2017-04-06 08:28:53",
        "orbit_uncertainty" : "6",
        "minimum_orbit_intersection" : ".0424494",
        "jupiter_tisserand_invariant" : "6.642",
        "epoch_osculation" : "2458000.5",
        "eccentricity" : ".1932362772885635",
        "semi_major_axis" : ".8914455114941706",
        "inclination" : "7.580553673069472",
        "ascending_node_longitude" : "127.6942725399475",
        "orbital_period" : "307.4260257616186",
        "perihelion_distance" : ".7191858994474377",
        "perihelion_argument" : "156.42246395",
        "aphelion_distance" : "1.063705123540903",
        "perihelion_time" : "2457847.731923325821",
        "mean_anomaly" : "178.8934670265987",
        "mean_motion" : "1.171013414066471",
        "equinox" : "J2000"
      }
    } ]
  }
}